{"type": "FeatureCollection", "features": [ {"type": "Feature", "properties": {"norad_id": 32260, "name": "GPS BIIRM-4 (PRN 15)", "group": "gnss", "lat": -53.626427285648575, "lon": 7.076380997644428, "alt_km": 20616.61261433278, "timestamp": "2025-12-04T03:47:54.787578+00:00", "meta": {"OBJECT_NAME": "GPS BIIRM-4 (PRN 15)", "OBJECT_ID": "2007-047A", "EPOCH": "2025-12-02T18:46:05.230272", "MEAN_MOTION": 2.00564824, "ECCENTRICITY": 0.01643753, "INCLINATION": 53.9483, "RA_OF_ASC_NODE": 88.1698, "ARG_OF_PERICENTER": 85.1293, "MEAN_ANOMALY": 276.722, "EPHEMERIS_TYPE": 0, "CLASSIFICATION_TYPE": "U", "NORAD_CAT_ID": 32260, "ELEMENT_SET_NO": 999, "REV_AT_EPOCH": 13287, "BSTAR": 0, "MEAN_MOTION_DOT": -1.7e-07, "MEAN_MOTION_DDOT": 0}, "tle": {"line1": "1 32260U 07047A   25336.78200498 -.00000017  00000+0  00000+0 0  9995", "line2": "2 32260  53.9483  88.1698 0164375  85.1293 276.7220  2.00564824132879"}}, "geometry": {"type": "Point", "coordinates": [7.076380997644428, -53.626427285648575]}}, {"type": "Feature", "properties": {"norad_id": 32275, "name": "COSMOS 2433 (720)", "group": "gnss", "lat": -10.614718368938012, "lon": -42.37522602130958, "alt_km": 19133.108402316564, "timestamp": "2025-12-04T03:47:54.787590+00:00", "meta": {"OBJECT_NAME": "COSMOS 2433 (720)", "OBJECT_ID": "2007-052A", "EPOCH": "2025-12-02T18:22:37.547904", "MEAN_MOTION": 2.13103908, "ECCENTRICITY": 0.0005557, "INCLINATION": 65.6886, "RA_OF_ASC_NODE": 322.5409, "ARG_OF_PERICENTER": 252.4107, "MEAN_ANOMALY": 107.5368, "EPHEMERIS_TYPE": 0, "CLASSIFICATION_TYPE": "U", "NORAD_CAT_ID": 32275, "ELEMENT_SET_NO": 999, "REV_AT_EPOCH": 14087, "BSTAR": 0, "MEAN_MOTION_DOT": -3.5e-07, "MEAN_MOTION_DDOT": 0}, "tle": {"line1": "1 32275U 07052A   25336.76571236 -.00000035  00000+0  00000+0 0  9996", "line2": "2 32275  65.6886 322.5409 0005557 252.4107 107.5368  2.13103908140875"}}, "geometry": {"type": "Point", "coordinates": [-42.37522602130958, -10.614718368938012]}}, {"type": "Feature", "properties": {"norad_id": 32276, "name": "COSMOS 2432 (719)", "group": "gnss", "lat": -57.187536776118364, "lon": -81.87798864734737, "alt_km": 19108.847677317633, "timestamp": "2025-12-04T03:47:54.787601+00:00", "meta": {"OBJECT_NAME": "COSMOS 2432 (719)", "OBJECT_ID": "2007-052B", "EPOCH": "2025-12-01T01:47:57.960960", "MEAN_MOTION": 2.13103067, "ECCENTRICITY": 0.00112256, "INCLINATION": 65.7054, "RA_OF_ASC_NODE": 322.7218, "ARG_OF_PERICENTER": 311.1678, "MEAN_ANOMALY": 136.2023, "EPHEMERIS_TYPE": 0, "CLASSIFICATION_TYPE": "U", "NORAD_CAT_ID": 32276, "ELEMENT_SET_NO": 999, "REV_AT_EPOCH": 14086, "BSTAR": 0, "MEAN_MOTION_DOT": -2.4e-07, "MEAN_MOTION_DDOT": 0}, "tle": {"line1": "1 32276U 07052B   25335.07497640 -.00000024  00000+0  00000+0 0  9994", "line2": "2 32276  65.7054 322.7218 0011225 311.1678 136.2023  2.13103067140861"}}, "geometry": {"type": "Point", "coordinates": [-81.87798864734737, -57.187536776118364]}}, {"type": "Feature", "properties": {"norad_id": 32384, "name": "GPS BIIRM-5 (PRN 29)", "group": "gnss", "lat": 34.89469241958567, "lon": -49.04195326737568, "alt_km": 20217.606625211003, "timestamp": "2025-12-04T03:47:54.787633+00:00", "meta": {"OBJECT_NAME": "GPS BIIRM-5 (PRN 29)", "OBJECT_ID": "2007-062A", "EPOCH": "2025-12-02T20:24:02.738880", "MEAN_MOTION": 2.00576658, "ECCENTRICITY": 0.00322118, "INCLINATION": 55.191, "RA_OF_ASC_NODE": 282.0427, "ARG_OF_PERICENTER": 162.849, "MEAN_ANOMALY": 16.9412, "EPHEMERIS_TYPE": 0, "CLASSIFICATION_TYPE": "U", "NORAD_CAT_ID": 32384, "ELEMENT_SET_NO": 999, "REV_AT_EPOCH": 13157, "BSTAR": 0, "MEAN_MOTION_DOT": -4.3e-07, "MEAN_MOTION_DDOT": 0}, "tle": {"line1": "1 32384U 07062A   25336.85003170 -.00000043  00000+0  00000+0 0  9994", "line2": "2 32384  55.1910 282.0427 0032211 162.8490  16.9412  2.00576658131576"}}, "geometry": {"type": "Point", "coordinates": [-49.04195326737568, 34.89469241958567]}}, {"type": "Feature", "properties": {"norad_id": 32393, "name": "COSMOS 2434 (721)", "group": "gnss", "lat": -50.49778335964535, "lon": 54.201469907330896, "alt_km": 19146.59113409345, "timestamp": "2025-12-04T03:47:54.787646+00:00", "meta": {"OBJECT_NAME": "COSMOS 2434 (721)", "OBJECT_ID": "2007-065A", "EPOCH": "2025-12-01T06:30:38.524608", "MEAN_MOTION": 2.13101181, "ECCENTRICITY": 0.00043375, "INCLINATION": 64.3147, "RA_OF_ASC_NODE": 198.5905, "ARG_OF_PERICENTER": 70.7489, "MEAN_ANOMALY": 113.3938, "EPHEMERIS_TYPE": 0, "CLASSIFICATION_TYPE": "U", "NORAD_CAT_ID": 32393, "ELEMENT_SET_NO": 999, "REV_AT_EPOCH": 13955, "BSTAR": 0, "MEAN_MOTION_DOT": 1.02e-06, "MEAN_MOTION_DDOT": 0}, "tle": {"line1": "1 32393U 07065A   25335.27127922  .00000102  00000+0  00000+0 0  9999", "line2": "2 32393  64.3147 198.5905 0004337  70.7489 113.3938  2.13101181139555"}}, "geometry": {"type": "Point", "coordinates": [54.201469907330896, -50.49778335964535]}}, {"type": "Feature", "properties": {"norad_id": 32395, "name": "COSMOS 2436 (723)", "group": "gnss", "lat": 10.771649776120704, "lon": -156.18425748584505, "alt_km": 19084.016625760414, "timestamp": "2025-12-04T03:47:54.787658+00:00", "meta": {"OBJECT_NAME": "COSMOS 2436 (723)", "OBJECT_ID": "2007-065C", "EPOCH": "2025-12-01T01:03:25.836192", "MEAN_MOTION": 2.13099978, "ECCENTRICITY": 0.00177119, "INCLINATION": 64.3233, "RA_OF_ASC_NODE": 198.6683, "ARG_OF_PERICENTER": 8.6583, "MEAN_ANOMALY": 134.2889, "EPHEMERIS_TYPE": 0, "CLASSIFICATION_TYPE": "U", "NORAD_CAT_ID": 32395, "ELEMENT_SET_NO": 999, "REV_AT_EPOCH": 13950, "BSTAR": 0, "MEAN_MOTION_DOT": 1e-06, "MEAN_MOTION_DDOT": 0}, "tle": {"line1": "1 32395U 07065C   25335.04404903  .00000100  00000+0  00000+0 0  9991", "line2": "2 32395  64.3233 198.6683 0017711   8.6583 134.2889  2.13099978139504"}}, "geometry": {"type": "Point", "coordinates": [-156.18425748584505, 10.771649776120704]}}, {"type": "Feature", "properties": {"norad_id": 32711, "name": "GPS BIIRM-6 (PRN 07)", "group": "gnss", "lat": -22.88591465813543, "lon": 140.14731668874583, "alt_km": 20142.12561738453, "timestamp": "2025-12-04T03:47:54.787670+00:00", "meta": {"OBJECT_NAME": "GPS BIIRM-6 (PRN 07)", "OBJECT_ID": "2008-012A", "EPOCH": "2025-12-03T04:49:23.445984", "MEAN_MOTION": 2.00565082, "ECCENTRICITY": 0.0202076, "INCLINATION": 54.4757, "RA_OF_ASC_NODE": 157.7537, "ARG_OF_PERICENTER": 244.8436, "MEAN_ANOMALY": 113.0855, "EPHEMERIS_TYPE": 0, "CLASSIFICATION_TYPE": "U", "NORAD_CAT_ID": 32711, "ELEMENT_SET_NO": 999, "REV_AT_EPOCH": 12982, "BSTAR": 0, "MEAN_MOTION_DOT": 1.08e-06, "MEAN_MOTION_DDOT": 0}, "tle": {"line1": "1 32711U 08012A   25337.20096581  .00000108  00000+0  00000+0 0  9993", "line2": "2 32711  54.4757 157.7537 0202076 244.8436 113.0855  2.00565082129824"}}, "geometry": {"type": "Point", "coordinates": [140.14731668874583, -22.88591465813543]}}, {"type": "Feature", "properties": {"norad_id": 35752, "name": "GPS BIIRM-8 (PRN 05)", "group": "gnss", "lat": -9.483128859935178, "lon": 28.694487768658338, "alt_km": 20191.13022851459, "timestamp": "2025-12-04T03:47:54.787682+00:00", "meta": {"OBJECT_NAME": "GPS BIIRM-8 (PRN 05)", "OBJECT_ID": "2009-043A", "EPOCH": "2025-12-01T04:42:32.815296", "MEAN_MOTION": 2.00566259, "ECCENTRICITY": 0.00521242, "INCLINATION": 56.0822, "RA_OF_ASC_NODE": 35.2386, "ARG_OF_PERICENTER": 82.0997, "MEAN_ANOMALY": 288.3285, "EPHEMERIS_TYPE": 0, "CLASSIFICATION_TYPE": "U", "NORAD_CAT_ID": 35752, "ELEMENT_SET_NO": 999, "REV_AT_EPOCH": 11939, "BSTAR": 0, "MEAN_MOTION_DOT": -6.6e-07, "MEAN_MOTION_DDOT": 0}, "tle": {"line1": "1 35752U 09043A   25335.19621314 -.00000066  00000+0  00000+0 0  9994", "line2": "2 35752  56.0822  35.2386 0052124  82.0997 288.3285  2.00566259119397"}}, "geometry": {"type": "Point", "coordinates": [28.694487768658338, -9.483128859935178]}}, {"type": "Feature", "properties": {"norad_id": 36111, "name": "COSMOS 2456 (730)", "group": "gnss", "lat": 32.1688868897546, "lon": 94.7551022509168, "alt_km": 19127.02069197458, "timestamp": "2025-12-04T03:47:54.787693+00:00", "meta": {"OBJECT_NAME": "COSMOS 2456 (730)", "OBJECT_ID": "2009-070A", "EPOCH": "2025-12-01T00:19:15.904128", "MEAN_MOTION": 2.13103433, "ECCENTRICITY": 0.00027486, "INCLINATION": 64.8936, "RA_OF_ASC_NODE": 77.7389, "ARG_OF_PERICENTER": 298.5027, "MEAN_ANOMALY": 204.7984, "EPHEMERIS_TYPE": 0, "CLASSIFICATION_TYPE": "U", "NORAD_CAT_ID": 36111, "ELEMENT_SET_NO": 999, "REV_AT_EPOCH": 12420, "BSTAR": 0, "MEAN_MOTION_DOT": -1.4e-07, "MEAN_MOTION_DDOT": 0}, "tle": {"line1": "1 36111U 09070A   25335.01337852 -.00000014  00000+0  00000+0 0  9999", "line2": "2 36111  64.8936  77.7389 0002748 298.5027 204.7984  2.13103433124208"}}, "geometry": {"type": "Point", "coordinates": [94.7551022509168, 32.1688868897546]}}, {"type": "Feature", "properties": {"norad_id": 36112, "name": "COSMOS 2457 (733)", "group": "gnss", "lat": 13.321510742108572, "lon": -108.88660896286162, "alt_km": 19116.392708063064, "timestamp": "2025-12-04T03:47:54.787704+00:00", "meta": {"OBJECT_NAME": "COSMOS 2457 (733)", "OBJECT_ID": "2009-070B", "EPOCH": "2025-12-03T00:06:14.592384", "MEAN_MOTION": 2.13100787, "ECCENTRICITY": 0.00049101, "INCLINATION": 64.8799, "RA_OF_ASC_NODE": 77.5186, "ARG_OF_PERICENTER": 156.2376, "MEAN_ANOMALY": 203.7006, "EPHEMERIS_TYPE": 0, "CLASSIFICATION_TYPE": "U", "NORAD_CAT_ID": 36112, "ELEMENT_SET_NO": 999, "REV_AT_EPOCH": 12424, "BSTAR": 0, "MEAN_MOTION_DOT": -2.5e-07, "MEAN_MOTION_DDOT": 0}, "tle": {"line1": "1 36112U 09070B   25337.00433556 -.00000025  00000+0  00000+0 0  9991", "line2": "2 36112  64.8799  77.5186 0004910 156.2376 203.7006  2.13100787124246"}}, "geometry": {"type": "Point", "coordinates": [-108.88660896286162, 13.321510742108572]}}]}